IRIDIUM 135             
1 43070U 17083A   26154.54670234  .00000093  00000+0  25971-4 0  9991
2 43070  86.3958 327.7204 0002179  90.3486 269.7960 14.34218697442193
IRIDIUM 138             
1 43071U 17083B   26154.57207252  .00000119  00000+0  35456-4 0  9999
2 43071  86.3962 327.4010 0002567  89.3700 270.7790 14.34217320442183
IRIDIUM 116             
1 43072U 17083C   26154.54035695  .00000057  00000+0  13424-4 0  9999
2 43072  86.3955 327.7086 0001863  92.8013 267.3396 14.34218702442219
IRIDIUM 130             
1 43073U 17083D   26154.57841567  .00000257  00000+0  84724-4 0  9999
2 43073  86.3967 327.9672 0002008  85.9808 274.1618 14.34218977442164
IRIDIUM 151             
1 43074U 17083E   26154.62281349  .00000104  00000+0  29932-4 0  9993
2 43074  86.3953 327.7314 0002215  88.9919 271.1530 14.34217592442192
IRIDIUM 134             
1 43075U 17083F   26154.52133331  .00000120  00000+0  35910-4 0  9991
2 43075  86.3960 327.7823 0002107  88.2994 271.8443 14.34218285442147
IRIDIUM 137             
1 43076U 17083G   26154.53401498  .00000085  00000+0  23380-4 0  9993
2 43076  86.3960 327.8694 0001896 101.3050 258.8359 14.34218432442212
IRIDIUM 141             
1 43077U 17083H   26154.59744301  .00000011  00000+0 -32328-5 0  9996
2 43077  86.3955 327.6740 0002215  91.8258 268.3192 14.34217914442222
IRIDIUM 153             
1 43078U 17083J   26154.47985492  .00000032  00000+0  44449-5 0  9991
2 43078  86.3951 296.2035 0002374  90.5632 269.5836 14.34217679443312
IRIDIUM 131             
1 43079U 17083K   26154.51498948  .00000033  00000+0  48923-5 0  9994
2 43079  86.3963 327.8940 0002207  93.1742 266.9706 14.34218249442149
IRIDIUM 144             
1 43249U 18030A   26154.48619444  .00000111  00000+0  32579-4 0  9994
2 43249  86.3955 296.1314 0002040  93.0281 267.1149 14.34218560428171
IRIDIUM 149             
1 43250U 18030B   26154.49253998  .00000004  00000+0 -55178-5 0  9998
2 43250  86.3943 296.0950 0002153  93.2178 266.9264 14.34217377428199
IRIDIUM 157             
1 43251U 18030C   26154.44179877  .00000004  00000+0 -55076-5 0  9994
2 43251  86.3944 296.1692 0002058  92.7250 267.4181 14.34217474428163
IRIDIUM 140             
1 43252U 18030D   26154.46082657  .00000023  00000+0  10011-5 0  9996
2 43252  86.3948 296.1733 0002146  91.5766 268.5676 14.34217590428228
IRIDIUM 145             
1 43253U 18030E   26154.44813854  .00000067  00000+0  16917-4 0  9994
2 43253  86.3951 296.1509 0001879  94.4998 265.6412 14.34218485428157
IRIDIUM 146             
1 43254U 18030F   26153.94073362  .00000005  00000+0 -53107-5 0  9997
2 43254  86.3948 296.3756 0002050  93.0477 267.0954 14.34217534428093
IRIDIUM 148             
1 43255U 18030G   26154.46716826  .00000028  00000+0  29192-5 0  9996
2 43255  86.3949 296.1983 0002118  95.9083 264.2355 14.34217830428200
IRIDIUM 142             
1 43256U 18030H   26154.43545537  .00000038  00000+0  65630-5 0  9991
2 43256  86.3945 296.1006 0001997  95.5987 264.5436 14.34217573428168
IRIDIUM 150             
1 43257U 18030J   26154.47351181  .00000004  00000+0 -54940-5 0  9992
2 43257  86.3945 296.2012 0002043  91.6251 268.5179 14.34217435428199
IRIDIUM 143             
1 43258U 18030K   26154.45448386 -.00000006  00000+0 -93439-5 0  9994
2 43258  86.3948 296.3013 0001937  92.4006 267.7412 14.34217324428124
IRIDIUM 161             
1 43478U 18047C   26154.30282571  .00000376  00000+0  10577-3 0  9990
2 43478  86.4479  94.2760 0002470  89.9942 270.1541 14.43281947423134
IRIDIUM 152             
1 43479U 18047D   26154.28766567  .00000033  00000+0  47785-5 0  9993
2 43479  86.3954  94.1433 0002364  85.1257 275.0209 14.34217603420496
IRIDIUM 147             
1 43480U 18047E   26154.29400565  .00000147  00000+0  45367-4 0  9998
2 43480  86.3956  94.1456 0002168  84.3251 275.8192 14.34217712420492
IRIDIUM 110             
1 43481U 18047F   26154.30035090  .00000047  00000+0  97096-5 0  9994
2 43481  86.3956  94.2344 0002558  89.2093 270.9396 14.34217825420487
IRIDIUM 162             
1 43482U 18047G   26154.29651377  .00000390  00000+0  10982-3 0  9993
2 43482  86.4477  94.1694 0002399  85.2096 274.9379 14.43273285423127
IRIDIUM 160             
1 43569U 18061A   26154.24618650  .00000087  00000+0  23909-4 0  9994
2 43569  86.3969  62.6255 0002269  87.5514 272.5941 14.34217702411372
IRIDIUM 166             
1 43570U 18061B   26154.27155631  .00000046  00000+0  94556-5 0  9996
2 43570  86.3967  62.5657 0002085  84.4353 275.7080 14.34217804411406
IRIDIUM 158             
1 43571U 18061C   26154.23984132  .00000066  00000+0  16636-4 0  9993
2 43571  86.3968  62.5888 0002344  83.5835 276.5628 14.34216372411368
IRIDIUM 165             
1 43572U 18061D   26154.26521137  .00000307  00000+0  10258-3 0  9990
2 43572  86.3971  62.6242 0002114  83.6073 276.5364 14.34219521411397
IRIDIUM 155             
1 43573U 18061E   26154.22715834  .00000099  00000+0  28460-4 0  9999
2 43573  86.3966  62.5102 0002211  81.2018 278.9429 14.34217910411351
